CCSDS_OMM_VERS = 2.0
CREATION_DATE  = 
ORIGINATOR     = 

OBJECT_NAME    = STARLINK-35395
OBJECT_ID      = 2025-232K
CENTER_NAME    = EARTH
REF_FRAME      = TEME
TIME_SYSTEM    = UTC
MEAN_ELEMENT_THEORY = SGP/SGP4

EPOCH          = 2025-11-04T20:00:03.000384
MEAN_MOTION    = 15.49194739
ECCENTRICITY   = .0001683
INCLINATION    = 53.1588
RA_OF_ASC_NODE = 326.3731
ARG_OF_PERICENTER = 65.0801
MEAN_ANOMALY   = 310.3474

EPHEMERIS_TYPE = 0
CLASSIFICATION_TYPE = U
NORAD_CAT_ID   = 66014
ELEMENT_SET_NO = 999
REV_AT_EPOCH   = 344
BSTAR          = .16321E-2
MEAN_MOTION_DOT = .91019E-3
MEAN_MOTION_DDOT = 0

CCSDS_OMM_VERS = 2.0
CREATION_DATE  = 
ORIGINATOR     = 

OBJECT_NAME    = STARLINK-34622
OBJECT_ID      = 2025-232L
CENTER_NAME    = EARTH
REF_FRAME      = TEME
TIME_SYSTEM    = UTC
MEAN_ELEMENT_THEORY = SGP/SGP4

EPOCH          = 2025-11-04T20:00:03.000384
MEAN_MOTION    = 15.49197928
ECCENTRICITY   = .0001774
INCLINATION    = 53.1588
RA_OF_ASC_NODE = 326.3569
ARG_OF_PERICENTER = 63.7539
MEAN_ANOMALY   = 319.3404

EPHEMERIS_TYPE = 0
CLASSIFICATION_TYPE = U
NORAD_CAT_ID   = 66015
ELEMENT_SET_NO = 999
REV_AT_EPOCH   = 334
BSTAR          = .15773E-2
MEAN_MOTION_DOT = .87927E-3
MEAN_MOTION_DDOT = 0

CCSDS_OMM_VERS = 2.0
CREATION_DATE  = 
ORIGINATOR     = 

OBJECT_NAME    = STARLINK-35243
OBJECT_ID      = 2025-232M
CENTER_NAME    = EARTH
REF_FRAME      = TEME
TIME_SYSTEM    = UTC
MEAN_ELEMENT_THEORY = SGP/SGP4

EPOCH          = 2025-11-04T20:00:03.000384
MEAN_MOTION    = 15.49195236
ECCENTRICITY   = .0001765
INCLINATION    = 53.1588
RA_OF_ASC_NODE = 326.3606
ARG_OF_PERICENTER = 64.9363
MEAN_ANOMALY   = 316.2368

EPHEMERIS_TYPE = 0
CLASSIFICATION_TYPE = U
NORAD_CAT_ID   = 66016
ELEMENT_SET_NO = 999
REV_AT_EPOCH   = 346
BSTAR          = .16467E-2
MEAN_MOTION_DOT = .91848E-3
MEAN_MOTION_DDOT = 0

CCSDS_OMM_VERS = 2.0
CREATION_DATE  = 
ORIGINATOR     = 

OBJECT_NAME    = STARLINK-35398
OBJECT_ID      = 2025-232N
CENTER_NAME    = EARTH
REF_FRAME      = TEME
TIME_SYSTEM    = UTC
MEAN_ELEMENT_THEORY = SGP/SGP4

EPOCH          = 2025-11-04T20:00:03.000384
MEAN_MOTION    = 15.49211217
ECCENTRICITY   = .0001792
INCLINATION    = 53.1588
RA_OF_ASC_NODE = 326.3492
ARG_OF_PERICENTER = 59.9343
MEAN_ANOMALY   = 326.9801

EPHEMERIS_TYPE = 0
CLASSIFICATION_TYPE = U
NORAD_CAT_ID   = 66017
ELEMENT_SET_NO = 999
REV_AT_EPOCH   = 337
BSTAR          = .13781E-2
MEAN_MOTION_DOT = .76691E-3
MEAN_MOTION_DDOT = 0

CCSDS_OMM_VERS = 2.0
CREATION_DATE  = 
ORIGINATOR     = 

OBJECT_NAME    = STARLINK-35376
OBJECT_ID      = 2025-232P
CENTER_NAME    = EARTH
REF_FRAME      = TEME
TIME_SYSTEM    = UTC
MEAN_ELEMENT_THEORY = SGP/SGP4

EPOCH          = 2025-11-04T20:00:03.000384
MEAN_MOTION    = 15.49199306
ECCENTRICITY   = .0001808
INCLINATION    = 53.1588
RA_OF_ASC_NODE = 326.3530
ARG_OF_PERICENTER = 62.9817
MEAN_ANOMALY   = 322.0267

EPHEMERIS_TYPE = 0
CLASSIFICATION_TYPE = U
NORAD_CAT_ID   = 66018
ELEMENT_SET_NO = 999
REV_AT_EPOCH   = 346
BSTAR          = .15625E-2
MEAN_MOTION_DOT = .87088E-3
MEAN_MOTION_DDOT = 0

CCSDS_OMM_VERS = 2.0
CREATION_DATE  = 
ORIGINATOR     = 

OBJECT_NAME    = STARLINK-35382
OBJECT_ID      = 2025-232Q
CENTER_NAME    = EARTH
REF_FRAME      = TEME
TIME_SYSTEM    = UTC
MEAN_ELEMENT_THEORY = SGP/SGP4

EPOCH          = 2025-11-04T20:00:03.000384
MEAN_MOTION    = 15.49195981
ECCENTRICITY   = .0001776
INCLINATION    = 53.1589
RA_OF_ASC_NODE = 326.3643
ARG_OF_PERICENTER = 64.5489
MEAN_ANOMALY   = 314.7139

EPHEMERIS_TYPE = 0
CLASSIFICATION_TYPE = U
NORAD_CAT_ID   = 66019
ELEMENT_SET_NO = 999
REV_AT_EPOCH   = 346
BSTAR          = .15854E-2
MEAN_MOTION_DOT = .88375E-3
MEAN_MOTION_DDOT = 0

CCSDS_OMM_VERS = 2.0
CREATION_DATE  = 
ORIGINATOR     = 

OBJECT_NAME    = STARLINK-35430
OBJECT_ID      = 2025-232R
CENTER_NAME    = EARTH
REF_FRAME      = TEME
TIME_SYSTEM    = UTC
MEAN_ELEMENT_THEORY = SGP/SGP4

EPOCH          = 2025-11-04T20:00:03.000384
MEAN_MOTION    = 15.49193355
ECCENTRICITY   = .000193
INCLINATION    = 53.1589
RA_OF_ASC_NODE = 326.3410
ARG_OF_PERICENTER = 62.7431
MEAN_ANOMALY   = 328.0104

EPHEMERIS_TYPE = 0
CLASSIFICATION_TYPE = U
NORAD_CAT_ID   = 66020
ELEMENT_SET_NO = 999
REV_AT_EPOCH   = 345
BSTAR          = .17011E-2
MEAN_MOTION_DOT = .94929E-3
MEAN_MOTION_DDOT = 0

CCSDS_OMM_VERS = 2.0
CREATION_DATE  = 
ORIGINATOR     = 

OBJECT_NAME    = STARLINK-35432
OBJECT_ID      = 2025-232S
CENTER_NAME    = EARTH
REF_FRAME      = TEME
TIME_SYSTEM    = UTC
MEAN_ELEMENT_THEORY = SGP/SGP4

EPOCH          = 2025-11-04T20:00:03.000384
MEAN_MOTION    = 15.49192983
ECCENTRICITY   = .0001772
INCLINATION    = 53.1589
RA_OF_ASC_NODE = 326.3448
ARG_OF_PERICENTER = 64.5801
MEAN_ANOMALY   = 324.2602

EPHEMERIS_TYPE = 0
CLASSIFICATION_TYPE = U
NORAD_CAT_ID   = 66021
ELEMENT_SET_NO = 999
REV_AT_EPOCH   = 337
BSTAR          = .16913E-2
MEAN_MOTION_DOT = .94375E-3
MEAN_MOTION_DDOT = 0

CCSDS_OMM_VERS = 2.0
CREATION_DATE  = 
ORIGINATOR     = 

OBJECT_NAME    = STARLINK-35340
OBJECT_ID      = 2025-232T
CENTER_NAME    = EARTH
REF_FRAME      = TEME
TIME_SYSTEM    = UTC
MEAN_ELEMENT_THEORY = SGP/SGP4

EPOCH          = 2025-11-04T20:00:03.000384
MEAN_MOTION    = 15.49242279
ECCENTRICITY   = .000149
INCLINATION    = 53.1588
RA_OF_ASC_NODE = 326.3361
ARG_OF_PERICENTER = 94.3752
MEAN_ANOMALY   = 298.3139

EPHEMERIS_TYPE = 0
CLASSIFICATION_TYPE = U
NORAD_CAT_ID   = 66022
ELEMENT_SET_NO = 999
REV_AT_EPOCH   = 345
BSTAR          = .15108E-2
MEAN_MOTION_DOT = .84292E-3
MEAN_MOTION_DDOT = 0

CCSDS_OMM_VERS = 2.0
CREATION_DATE  = 
ORIGINATOR     = 

OBJECT_NAME    = STARLINK-35394
OBJECT_ID      = 2025-232U
CENTER_NAME    = EARTH
REF_FRAME      = TEME
TIME_SYSTEM    = UTC
MEAN_ELEMENT_THEORY = SGP/SGP4

EPOCH          = 2025-11-04T20:00:03.000384
MEAN_MOTION    = 15.49233320
ECCENTRICITY   = .0001472
INCLINATION    = 53.1588
RA_OF_ASC_NODE = 326.3319
ARG_OF_PERICENTER = 94.6195
MEAN_ANOMALY   = 299.9852

EPHEMERIS_TYPE = 0
CLASSIFICATION_TYPE = U
NORAD_CAT_ID   = 66023
ELEMENT_SET_NO = 999
REV_AT_EPOCH   = 345
BSTAR          = .17509E-2
MEAN_MOTION_DOT = .97894E-3
MEAN_MOTION_DDOT = 0

CCSDS_OMM_VERS = 2.0
CREATION_DATE  = 
ORIGINATOR     = 

OBJECT_NAME    = STARLINK-35410
OBJECT_ID      = 2025-232V
CENTER_NAME    = EARTH
REF_FRAME      = TEME
TIME_SYSTEM    = UTC
MEAN_ELEMENT_THEORY = SGP/SGP4

EPOCH          = 2025-11-04T20:00:03.000384
MEAN_MOTION    = 15.49240075
ECCENTRICITY   = .0001587
INCLINATION    = 53.1590
RA_OF_ASC_NODE = 326.3239
ARG_OF_PERICENTER = 93.9442
MEAN_ANOMALY   = 304.4999

EPHEMERIS_TYPE = 0
CLASSIFICATION_TYPE = U
NORAD_CAT_ID   = 66024
ELEMENT_SET_NO = 999
REV_AT_EPOCH   = 345
BSTAR          = .15227E-2
MEAN_MOTION_DOT = .84957E-3
MEAN_MOTION_DDOT = 0

CCSDS_OMM_VERS = 2.0
CREATION_DATE  = 
ORIGINATOR     = 

OBJECT_NAME    = STARLINK-35280
OBJECT_ID      = 2025-232W
CENTER_NAME    = EARTH
REF_FRAME      = TEME
TIME_SYSTEM    = UTC
MEAN_ELEMENT_THEORY = SGP/SGP4

EPOCH          = 2025-11-04T20:00:03.000384
MEAN_MOTION    = 15.49240934
ECCENTRICITY   = .0001389
INCLINATION    = 53.1590
RA_OF_ASC_NODE = 326.3277
ARG_OF_PERICENTER = 93.0769
MEAN_ANOMALY   = 303.4475

EPHEMERIS_TYPE = 0
CLASSIFICATION_TYPE = U
NORAD_CAT_ID   = 66025
ELEMENT_SET_NO = 999
REV_AT_EPOCH   = 338
BSTAR          = .1532E-2
MEAN_MOTION_DOT = .85489E-3
MEAN_MOTION_DDOT = 0

