STARLINK-35395          
1 66014U 25232K   25308.83336806  .00091019  00000+0  16321-2 0  9990
2 66014  53.1588 326.3731 0001683  65.0801 310.3474 15.49194739  3447
STARLINK-34622          
1 66015U 25232L   25308.83336806  .00087927  00000+0  15773-2 0  9994
2 66015  53.1588 326.3569 0001774  63.7539 319.3404 15.49197928  3345
STARLINK-35243          
1 66016U 25232M   25308.83336806  .00091848  00000+0  16467-2 0  9993
2 66016  53.1588 326.3606 0001765  64.9363 316.2368 15.49195236  3464
STARLINK-35398          
1 66017U 25232N   25308.83336806  .00076691  00000+0  13781-2 0  9999
2 66017  53.1588 326.3492 0001792  59.9343 326.9801 15.49211217  3378
STARLINK-35376          
1 66018U 25232P   25308.83336806  .00087088  00000+0  15625-2 0  9991
2 66018  53.1588 326.3530 0001808  62.9817 322.0267 15.49199306  3467
STARLINK-35382          
1 66019U 25232Q   25308.83336806  .00088375  00000+0  15854-2 0  9996
2 66019  53.1589 326.3643 0001776  64.5489 314.7139 15.49195981  3462
STARLINK-35430          
1 66020U 25232R   25308.83336806  .00094929  00000+0  17011-2 0  9997
2 66020  53.1589 326.3410 0001930  62.7431 328.0104 15.49193355  3457
STARLINK-35432          
1 66021U 25232S   25308.83336806  .00094375  00000+0  16913-2 0  9993
2 66021  53.1589 326.3448 0001772  64.5801 324.2602 15.49192983  3372
STARLINK-35340          
1 66022U 25232T   25308.83336806  .00084292  00000+0  15108-2 0  9996
2 66022  53.1588 326.3361 0001490  94.3752 298.3139 15.49242279  3458
STARLINK-35394          
1 66023U 25232U   25308.83336806  .00097894  00000+0  17509-2 0  9996
2 66023  53.1588 326.3319 0001472  94.6195 299.9852 15.49233320  3452
STARLINK-35410          
1 66024U 25232V   25308.83336806  .00084957  00000+0  15227-2 0  9998
2 66024  53.1590 326.3239 0001587  93.9442 304.4999 15.49240075  3450
STARLINK-35280          
1 66025U 25232W   25308.83336806  .00085489  00000+0  15320-2 0  9994
2 66025  53.1590 326.3277 0001389  93.0769 303.4475 15.49240934  3380
